PROBA-1                 
1 26958U 01049B   26183.60210604  .00002948  00000+0  19147-3 0  9990
2 26958  97.9593 192.6735 0056627  71.4067 289.3299 15.07564956345943
CUTE-1 (CO-55)          
1 27844U 03031E   26182.99996152  .00000303  00000+0  15002-3 0  9997
2 27844  98.6736 191.3725 0010408 137.1021 223.0971 14.24344824193780
CUBESAT XI-IV (CO-57)   
1 27848U 03031J   26183.27698888  .00000271  00000+0  13794-3 0  9998
2 27848  98.6769 191.3466 0009960 153.7682 206.4003 14.23628936193521
APRIZESAT 4             
1 35684U 09041D   26183.15936325  .00000764  00000+0  97714-4 0  9992
2 35684  98.1409 258.7781 0041886 273.0980  86.5440 14.83899214913585
APRIZESAT 3             
1 35686U 09041F   26183.41306594  .00001142  00000+0  10321-3 0  9991
2 35686  98.2079 337.3679 0061954  17.8288 342.5086 14.96282102918654
PROBA-2                 
1 36037U 09059B   26183.43985018  .00000216  00000+0  60760-4 0  9991
2 36037  98.2453   6.5813 0012224 230.0703 129.9421 14.54869140883741
APRIZESAT 5             
1 37792U 11044E   26183.54562956  .00001194  00000+0  15796-3 0  9995
2 37792  98.2450 117.0216 0051160 314.4674  45.2359 14.81108748801063
APRIZESAT 6             
1 37793U 11044F   26183.54787272  .00000981  00000+0  14506-3 0  9997
2 37793  98.2351  94.3604 0043999  38.2332 140.2307 14.76940652799411
PROBA-V                 
1 39159U 13021A   26183.44121273  .00000125  00000+0  72986-4 0  9991
2 39159  98.3594 161.2954 0005435  88.6722 271.5080 14.23600926683288
APRIZESAT 7             
1 39416U 13066A   26183.58345279  .00001144  00000+0  11834-3 0  9991
2 39416  97.7716 136.5827 0036350 157.9415 202.3378 14.91596929683527
APRIZESAT 8             
1 39425U 13066K   26183.40965254  .00000994  00000+0  11341-3 0  9998
2 39425  97.8225 130.6658 0044586 234.7792 124.9247 14.87679590681930
BUGSAT-1 (TITA)         
1 40014U 14033E   26183.61674565  .00007837  00000+0  41029-3 0  9993
2 40014  98.0435 277.0702 0028912 126.8389 233.5500 15.15762348658171
SAUDISAT 4              
1 40016U 14033G   26183.40301940  .00000674  00000+0  95332-4 0  9995
2 40016  97.7602 329.0128 0045325  25.6126 334.7318 14.79563911648328
APRIZESAT 9             
1 40018U 14033J   26183.61497833  .00000915  00000+0  14128-3 0  9998
2 40018  97.9081 316.4379 0066859 149.7034 210.8067 14.74237994645834
APRIZESAT 10            
1 40019U 14033K   26183.29674402  .00000676  00000+0  11377-3 0  9999
2 40019  97.9669 309.9207 0077815 224.8206 134.6698 14.70898352644473
TECHDEMOSAT-1 (TDS-1)   
1 40076U 14037H   26183.43163173  .00009249  00000+0  52016-3 0  9990
2 40076  98.3816 177.1579 0005597 200.4078 159.6927 15.13523875650536
TECHNOSAT               
1 42829U 17042E   26183.40827025  .00003039  00000+0  21732-3 0  9999
2 42829  97.4294 340.4887 0018615  45.8311 314.4442 15.05046328488993
FLYING LAPTOP           
1 42831U 17042G   26183.64960918  .00004368  00000+0  34303-3 0  9991
2 42831  97.4759 338.5939 0020002  72.5397 287.8012 15.01246024488775
HAWK-A                  
1 43765U 18099H   26183.57373040  .00007466  00000+0  29894-3 0  9998
2 43765  97.3901 235.6098 0033542 229.1034 130.7297 15.24825216415440
HAWK-B                  
1 43794U 18099AN  26183.61366169  .00006927  00000+0  29393-3 0  9994
2 43794  97.3948 235.0320 0030413 247.8388 111.9620 15.22992160415383
HAWK-C                  
1 43799U 18099AT  26183.58078068  .00008396  00000+0  30026-3 0  9990
2 43799  97.3878 236.6053 0039168 229.0602 130.7245 15.28320860416265
SALSAT                  
1 46495U 20068K   26183.25417133  .00008637  00000+0  29987-3 0  9991
2 46495  97.8847 187.2381 0008037 243.7769 116.2645 15.30013367317666
HAWK-2C                 
1 47502U 21006CT  26183.53937733  .00007487  00000+0  22364-3 0  9992
2 47502  97.2264 227.5437 0008195 137.0400 223.1485 15.34851524301858
HAWK-2A                 
1 47505U 21006CW  26183.02016324  .00007854  00000+0  23445-3 0  9992
2 47505  97.2308 227.7213 0007607 141.4283 218.7506 15.34859675301779
HAWK-2B                 
1 47508U 21006CZ  26183.14512468  .00008660  00000+0  25730-3 0  9993
2 47508  97.2176 226.1517 0008206 139.6369 220.5485 15.34973205301790
HAWK-3B                 
1 48931U 21059BE  26183.49171355  .00046040  00000+0  36980-3 0  9999
2 48931  97.6639  21.6610 0003425 250.4226 109.6666 15.70861042280253
HAWK-3C                 
1 48948U 21059BX  26183.10917826  .00051354  00000+0  41275-3 0  9993
2 48948  97.6758  26.9528 0003557 255.0517 105.0351 15.70822629280191
HAWK-3A                 
1 48957U 21059CG  26183.49127530  .00047397  00000+0  38069-3 0  9999
2 48957  97.6707  24.5647 0003605 255.1369 104.9494 15.70854979280257
HAWK-5C                 
1 52754U 22057Y   26183.39269996  .00020376  00000+0  34075-3 0  9991
2 52754  97.6614 344.0465 0003917  32.6953 327.4540 15.51932792228700
HAWK-5B                 
1 52756U 22057AA  26183.39252238  .00020321  00000+0  33977-3 0  9994
2 52756  97.6626 342.3971 0004531  22.8265 337.3188 15.51935313228708
